[{"OBJECT_NAME":"GOES 14","OBJECT_ID":"2009-033A","EPOCH":"2026-04-27T12:09:51.875424","MEAN_MOTION":1.00116851,"ECCENTRICITY":0.0001783,"INCLINATION":1.5612,"RA_OF_ASC_NODE":83.621,"ARG_OF_PERICENTER":315.461,"MEAN_ANOMALY":169.0677,"EPHEMERIS_TYPE":0,"CLASSIFICATION_TYPE":"U","NORAD_CAT_ID":35491,"ELEMENT_SET_NO":999,"REV_AT_EPOCH":608,"BSTAR":0,"MEAN_MOTION_DOT":-6.0e-7,"MEAN_MOTION_DDOT":0},{"OBJECT_NAME":"EWS-G2 (GOES 15)","OBJECT_ID":"2010-008A","EPOCH":"2026-04-27T01:59:21.598368","MEAN_MOTION":1.00272555,"ECCENTRICITY":0.000399,"INCLINATION":1.1431,"RA_OF_ASC_NODE":83.7693,"ARG_OF_PERICENTER":23.6677,"MEAN_ANOMALY":200.7369,"EPHEMERIS_TYPE":0,"CLASSIFICATION_TYPE":"U","NORAD_CAT_ID":36411,"ELEMENT_SET_NO":999,"REV_AT_EPOCH":5912,"BSTAR":0,"MEAN_MOTION_DOT":1.3e-7,"MEAN_MOTION_DDOT":0},{"OBJECT_NAME":"GOES 16","OBJECT_ID":"2016-071A","EPOCH":"2026-04-27T11:42:08.282304","MEAN_MOTION":1.00271289,"ECCENTRICITY":0.0001468,"INCLINATION":0.2145,"RA_OF_ASC_NODE":85.3119,"ARG_OF_PERICENTER":252.2214,"MEAN_ANOMALY":308.7605,"EPHEMERIS_TYPE":0,"CLASSIFICATION_TYPE":"U","NORAD_CAT_ID":41866,"ELEMENT_SET_NO":999,"REV_AT_EPOCH":3459,"BSTAR":0,"MEAN_MOTION_DOT":-1.0e-6,"MEAN_MOTION_DDOT":0},{"OBJECT_NAME":"GOES 17","OBJECT_ID":"2018-022A","EPOCH":"2026-04-27T11:18:21.418272","MEAN_MOTION":1.00271953,"ECCENTRICITY":6.58e-5,"INCLINATION":0.8095,"RA_OF_ASC_NODE":86.3935,"ARG_OF_PERICENTER":279.73,"MEAN_ANOMALY":289.4348,"EPHEMERIS_TYPE":0,"CLASSIFICATION_TYPE":"U","NORAD_CAT_ID":43226,"ELEMENT_SET_NO":999,"REV_AT_EPOCH":2991,"BSTAR":0,"MEAN_MOTION_DOT":-1.91e-6,"MEAN_MOTION_DDOT":0},{"OBJECT_NAME":"GOES 18","OBJECT_ID":"2022-021A","EPOCH":"2026-04-27T11:05:42.349344","MEAN_MOTION":1.00270127,"ECCENTRICITY":5.69e-5,"INCLINATION":0.0108,"RA_OF_ASC_NODE":80.6521,"ARG_OF_PERICENTER":6.7935,"MEAN_ANOMALY":157.4266,"EPHEMERIS_TYPE":0,"CLASSIFICATION_TYPE":"U","NORAD_CAT_ID":51850,"ELEMENT_SET_NO":999,"REV_AT_EPOCH":608,"BSTAR":0,"MEAN_MOTION_DOT":0,"MEAN_MOTION_DDOT":0},{"OBJECT_NAME":"GOES 19","OBJECT_ID":"2024-119A","EPOCH":"2026-04-27T07:52:38.760960","MEAN_MOTION":1.0027304,"ECCENTRICITY":6.45e-5,"INCLINATION":0.0444,"RA_OF_ASC_NODE":72.6583,"ARG_OF_PERICENTER":13.15,"MEAN_ANOMALY":172.4706,"EPHEMERIS_TYPE":0,"CLASSIFICATION_TYPE":"U","NORAD_CAT_ID":60133,"ELEMENT_SET_NO":999,"REV_AT_EPOCH":645,"BSTAR":0,"MEAN_MOTION_DOT":-2.58e-6,"MEAN_MOTION_DDOT":0}]
