GOES 14                 
1 35491U 09033A   26117.50685041 -.00000060  00000+0  00000+0 0  9998
2 35491   1.5612  83.6210 0001783 315.4610 169.0677  1.00116851  6081
EWS-G2 (GOES 15)        
1 36411U 10008A   26117.08288887  .00000013  00000+0  00000+0 0  9992
2 36411   1.1431  83.7693 0003990  23.6677 200.7369  1.00272555 59126
GOES 16                 
1 41866U 16071A   26117.48759586 -.00000100  00000+0  00000+0 0  9999
2 41866   0.2145  85.3119 0001468 252.2214 308.7605  1.00271289 34593
GOES 17                 
1 43226U 18022A   26117.47108123 -.00000191  00000+0  00000+0 0  9993
2 43226   0.8095  86.3935 0000658 279.7300 289.4348  1.00271953 29919
GOES 18                 
1 51850U 22021A   26117.46229571  .00000000  00000+0  00000+0 0  9997
2 51850   0.0108  80.6521 0000569   6.7935 157.4266  1.00270127  6087
GOES 19                 
1 60133U 24119A   26117.32822640 -.00000258  00000+0  00000+0 0  9998
2 60133   0.0444  72.6583 0000645  13.1500 172.4706  1.00273040  6452
